{"type": "FeatureCollection", "features": [ {"type": "Feature", "properties": {"norad_id": 43622, "name": "BEIDOU-3 M13 (C32)", "group": "beidou", "lat": -22.515068785849056, "lon": -95.1871783302317, "alt_km": 21531.68369930905, "timestamp": "2025-12-11T08:58:27.388723+00:00", "meta": {"OBJECT_NAME": "BEIDOU-3 M13 (C32)", "OBJECT_ID": "2018-072A", "EPOCH": "2025-12-09T23:46:31.895616", "MEAN_MOTION": 1.8623066, "ECCENTRICITY": 0.00056577, "INCLINATION": 56.4568, "RA_OF_ASC_NODE": 68.9118, "ARG_OF_PERICENTER": 299.2639, "MEAN_ANOMALY": 60.7025, "EPHEMERIS_TYPE": 0, "CLASSIFICATION_TYPE": "U", "NORAD_CAT_ID": 43622, "ELEMENT_SET_NO": 999, "REV_AT_EPOCH": 4913, "BSTAR": 0, "MEAN_MOTION_DOT": -5.2e-07, "MEAN_MOTION_DDOT": 0}, "tle": {"line1": "1 43622U 18072A   25343.99064694 -.00000052  00000+0  00000+0 0  9995", "line2": "2 43622  56.4568  68.9118 0005657 299.2639  60.7025  1.86230660 49138"}}, "geometry": {"type": "Point", "coordinates": [-95.1871783302317, -22.515068785849056]}}, {"type": "Feature", "properties": {"norad_id": 43623, "name": "BEIDOU-3 M14 (C33)", "group": "beidou", "lat": -47.635603452692536, "lon": 22.284834249053475, "alt_km": 21526.40723413211, "timestamp": "2025-12-11T08:58:27.388734+00:00", "meta": {"OBJECT_NAME": "BEIDOU-3 M14 (C33)", "OBJECT_ID": "2018-072B", "EPOCH": "2025-12-09T20:32:48.183072", "MEAN_MOTION": 1.86230666, "ECCENTRICITY": 0.00032297, "INCLINATION": 56.4585, "RA_OF_ASC_NODE": 68.9098, "ARG_OF_PERICENTER": 335.6302, "MEAN_ANOMALY": 24.3775, "EPHEMERIS_TYPE": 0, "CLASSIFICATION_TYPE": "U", "NORAD_CAT_ID": 43623, "ELEMENT_SET_NO": 999, "REV_AT_EPOCH": 4912, "BSTAR": 0, "MEAN_MOTION_DOT": -5.1e-07, "MEAN_MOTION_DDOT": 0}, "tle": {"line1": "1 43623U 18072B   25343.85611323 -.00000051  00000+0  00000+0 0  9997", "line2": "2 43623  56.4585  68.9098 0003229 335.6302  24.3775  1.86230666 49123"}}, "geometry": {"type": "Point", "coordinates": [22.284834249053475, -47.635603452692536]}}, {"type": "Feature", "properties": {"norad_id": 43647, "name": "BEIDOU-3 M16 (C35)", "group": "beidou", "lat": -9.617880779053959, "lon": 133.5544949927137, "alt_km": 21549.090552083242, "timestamp": "2025-12-11T08:58:27.388746+00:00", "meta": {"OBJECT_NAME": "BEIDOU-3 M16 (C35)", "OBJECT_ID": "2018-078A", "EPOCH": "2025-12-08T22:33:41.935680", "MEAN_MOTION": 1.86232209, "ECCENTRICITY": 0.0007116, "INCLINATION": 54.2656, "RA_OF_ASC_NODE": 306.6541, "ARG_OF_PERICENTER": 19.0293, "MEAN_ANOMALY": 340.9862, "EPHEMERIS_TYPE": 0, "CLASSIFICATION_TYPE": "U", "NORAD_CAT_ID": 43647, "ELEMENT_SET_NO": 999, "REV_AT_EPOCH": 4861, "BSTAR": 0, "MEAN_MOTION_DOT": -7.5e-07, "MEAN_MOTION_DDOT": 0}, "tle": {"line1": "1 43647U 18078A   25342.94006870 -.00000075  00000+0  00000+0 0  9999", "line2": "2 43647  54.2656 306.6541 0007116  19.0293 340.9862  1.86232209 48612"}}, "geometry": {"type": "Point", "coordinates": [133.5544949927137, -9.617880779053959]}}, {"type": "Feature", "properties": {"norad_id": 43648, "name": "BEIDOU-3 M15 (C34)", "group": "beidou", "lat": 51.549394208750186, "lon": 61.555159417399096, "alt_km": 21521.393443278714, "timestamp": "2025-12-11T08:58:27.388757+00:00", "meta": {"OBJECT_NAME": "BEIDOU-3 M15 (C34)", "OBJECT_ID": "2018-078B", "EPOCH": "2025-12-09T14:32:59.144640", "MEAN_MOTION": 1.86231871, "ECCENTRICITY": 0.0003622, "INCLINATION": 54.2606, "RA_OF_ASC_NODE": 306.6314, "ARG_OF_PERICENTER": 18.0065, "MEAN_ANOMALY": 341.9965, "EPHEMERIS_TYPE": 0, "CLASSIFICATION_TYPE": "U", "NORAD_CAT_ID": 43648, "ELEMENT_SET_NO": 999, "REV_AT_EPOCH": 4864, "BSTAR": 0, "MEAN_MOTION_DOT": -7.7e-07, "MEAN_MOTION_DDOT": 0}, "tle": {"line1": "1 43648U 18078B   25343.60624010 -.00000077  00000+0  00000+0 0  9998", "line2": "2 43648  54.2606 306.6314 0003622  18.0065 341.9965  1.86231871 48642"}}, "geometry": {"type": "Point", "coordinates": [61.555159417399096, 51.549394208750186]}}, {"type": "Feature", "properties": {"norad_id": 43683, "name": "BEIDOU-3 G1 (C59)", "group": "beidou", "lat": -2.473142021077169, "lon": -4.9998717846976, "alt_km": 35794.180082542276, "timestamp": "2025-12-11T08:58:27.388770+00:00", "meta": {"OBJECT_NAME": "BEIDOU-3 G1 (C59)", "OBJECT_ID": "2018-085A", "EPOCH": "2025-12-11T03:54:09.993024", "MEAN_MOTION": 1.00271074, "ECCENTRICITY": 0.0001812, "INCLINATION": 2.6039, "RA_OF_ASC_NODE": 103.0248, "ARG_OF_PERICENTER": 64.7502, "MEAN_ANOMALY": 110.9649, "EPHEMERIS_TYPE": 0, "CLASSIFICATION_TYPE": "U", "NORAD_CAT_ID": 43683, "ELEMENT_SET_NO": 999, "REV_AT_EPOCH": 2617, "BSTAR": 0, "MEAN_MOTION_DOT": -2.71e-06, "MEAN_MOTION_DDOT": 0}, "tle": {"line1": "1 43683U 18085A   25345.16261566 -.00000271  00000+0  00000+0 0  9997", "line2": "2 43683   2.6039 103.0248 0001812  64.7502 110.9649  1.00271074 26178"}}, "geometry": {"type": "Point", "coordinates": [-4.9998717846976, -2.473142021077169]}}, {"type": "Feature", "properties": {"norad_id": 43706, "name": "BEIDOU-3 M17 (C36)", "group": "beidou", "lat": -0.9105299281761485, "lon": -171.9839036552331, "alt_km": 21517.855415228187, "timestamp": "2025-12-11T08:58:27.388781+00:00", "meta": {"OBJECT_NAME": "BEIDOU-3 M17 (C36)", "OBJECT_ID": "2018-093A", "EPOCH": "2025-12-10T13:45:05.408064", "MEAN_MOTION": 1.86228361, "ECCENTRICITY": 0.00062551, "INCLINATION": 54.1726, "RA_OF_ASC_NODE": 188.6952, "ARG_OF_PERICENTER": 307.2652, "MEAN_ANOMALY": 234.6216, "EPHEMERIS_TYPE": 0, "CLASSIFICATION_TYPE": "U", "NORAD_CAT_ID": 43706, "ELEMENT_SET_NO": 999, "REV_AT_EPOCH": 4802, "BSTAR": 0, "MEAN_MOTION_DOT": 5.7e-07, "MEAN_MOTION_DDOT": 0}, "tle": {"line1": "1 43706U 18093A   25344.57297926  .00000057  00000+0  00000+0 0  9996", "line2": "2 43706  54.1726 188.6952 0006255 307.2652 234.6216  1.86228361 48024"}}, "geometry": {"type": "Point", "coordinates": [-171.9839036552331, -0.9105299281761485]}}, {"type": "Feature", "properties": {"norad_id": 43707, "name": "BEIDOU-3 M18 (C37)", "group": "beidou", "lat": 54.11156069638316, "lon": -78.23333434389993, "alt_km": 21525.202464307513, "timestamp": "2025-12-11T08:58:27.388793+00:00", "meta": {"OBJECT_NAME": "BEIDOU-3 M18 (C37)", "OBJECT_ID": "2018-093B", "EPOCH": "2025-12-09T02:08:32.306784", "MEAN_MOTION": 1.86226655, "ECCENTRICITY": 0.00062934, "INCLINATION": 54.1729, "RA_OF_ASC_NODE": 188.7377, "ARG_OF_PERICENTER": 351.6926, "MEAN_ANOMALY": 8.358, "EPHEMERIS_TYPE": 0, "CLASSIFICATION_TYPE": "U", "NORAD_CAT_ID": 43707, "ELEMENT_SET_NO": 999, "REV_AT_EPOCH": 4799, "BSTAR": 0, "MEAN_MOTION_DOT": 4.9e-07, "MEAN_MOTION_DDOT": 0}, "tle": {"line1": "1 43707U 18093B   25343.08926281  .00000049  00000+0  00000+0 0  9996", "line2": "2 43707  54.1729 188.7377 0006293 351.6926   8.3580  1.86226655 47998"}}, "geometry": {"type": "Point", "coordinates": [-78.23333434389993, 54.11156069638316]}}, {"type": "Feature", "properties": {"norad_id": 44204, "name": "BEIDOU-3 IGSO-1 (C38)", "group": "beidou", "lat": -53.756430325434, "lon": -17.284004625831596, "alt_km": 35755.43031902367, "timestamp": "2025-12-11T08:58:27.388805+00:00", "meta": {"OBJECT_NAME": "BEIDOU-3 IGSO-1 (C38)", "OBJECT_ID": "2019-023A", "EPOCH": "2025-11-19T14:15:02.708640", "MEAN_MOTION": 1.00252177, "ECCENTRICITY": 0.0026966, "INCLINATION": 58.4003, "RA_OF_ASC_NODE": 39.8168, "ARG_OF_PERICENTER": 221.2202, "MEAN_ANOMALY": 126.9723, "EPHEMERIS_TYPE": 0, "CLASSIFICATION_TYPE": "U", "NORAD_CAT_ID": 44204, "ELEMENT_SET_NO": 999, "REV_AT_EPOCH": 510, "BSTAR": 0, "MEAN_MOTION_DOT": -2.26e-06, "MEAN_MOTION_DDOT": 0}, "tle": {"line1": "1 44204U 19023A   25323.59378135 -.00000226  00000+0  00000+0 0  9994", "line2": "2 44204  58.4003  39.8168 0026966 221.2202 126.9723  1.00252177  5102"}}, "geometry": {"type": "Point", "coordinates": [-17.284004625831596, -53.756430325434]}}, {"type": "Feature", "properties": {"norad_id": 44231, "name": "BEIDOU-2 G8 (C01)", "group": "beidou", "lat": -1.5977654389527995, "lon": -0.48614509459353034, "alt_km": 35755.92676140241, "timestamp": "2025-12-11T08:58:27.388820+00:00", "meta": {"OBJECT_NAME": "BEIDOU-2 G8 (C01)", "OBJECT_ID": "2019-027A", "EPOCH": "2025-12-10T21:04:40.271232", "MEAN_MOTION": 1.00268197, "ECCENTRICITY": 0.0008614, "INCLINATION": 1.6574, "RA_OF_ASC_NODE": 74.6887, "ARG_OF_PERICENTER": 255.1207, "MEAN_ANOMALY": 210.7232, "EPHEMERIS_TYPE": 0, "CLASSIFICATION_TYPE": "U", "NORAD_CAT_ID": 44231, "ELEMENT_SET_NO": 999, "REV_AT_EPOCH": 2419, "BSTAR": 0, "MEAN_MOTION_DOT": -2.43e-06, "MEAN_MOTION_DDOT": 0}, "tle": {"line1": "1 44231U 19027A   25344.87824388 -.00000243  00000+0  00000+0 0  9997", "line2": "2 44231   1.6574  74.6887 0008614 255.1207 210.7232  1.00268197 24197"}}, "geometry": {"type": "Point", "coordinates": [-0.48614509459353034, -1.5977654389527995]}}, {"type": "Feature", "properties": {"norad_id": 44337, "name": "BEIDOU-3 IGSO-2 (C39)", "group": "beidou", "lat": 5.0937405685477, "lon": -23.052094829563206, "alt_km": 35647.96704920848, "timestamp": "2025-12-11T08:58:27.388832+00:00", "meta": {"OBJECT_NAME": "BEIDOU-3 IGSO-2 (C39)", "OBJECT_ID": "2019-035A", "EPOCH": "2025-12-10T21:20:38.716800", "MEAN_MOTION": 1.00271557, "ECCENTRICITY": 0.0037337, "INCLINATION": 55.2247, "RA_OF_ASC_NODE": 160.5169, "ARG_OF_PERICENTER": 202.3364, "MEAN_ANOMALY": 156.6887, "EPHEMERIS_TYPE": 0, "CLASSIFICATION_TYPE": "U", "NORAD_CAT_ID": 44337, "ELEMENT_SET_NO": 999, "REV_AT_EPOCH": 2377, "BSTAR": 0, "MEAN_MOTION_DOT": -6.6e-07, "MEAN_MOTION_DDOT": 0}, "tle": {"line1": "1 44337U 19035A   25344.88933700 -.00000066  00000+0  00000+0 0  9996", "line2": "2 44337  55.2247 160.5169 0037337 202.3364 156.6887  1.00271557 23777"}}, "geometry": {"type": "Point", "coordinates": [-23.052094829563206, 5.0937405685477]}}]}